NORAD_CAT_ID,OBJECT_NAME,OBJECT_TYPE,EPOCH,MEAN_MOTION,ECCENTRICITY,INCLINATION,RA_OF_ASC_NODE,ARG_OF_PERICENTER,MEAN_ANOMALY,BSTAR,MEAN_MOTION_DOT,MEAN_MOTION_DDOT,TLE_LINE0,TLE_LINE1,TLE_LINE2,SEMIMAJOR_AXIS,PERIOD,APOGEE,PERIGEE,DECAYED
50820.0,STARLINK-3339,PAYLOAD,2024-05-29 12:45:33,15.08839818,0.0001122,53.2155,203.3061,86.9515,273.1605,6.0975e-05,6.83e-06,0.0,0 STARLINK-3339,1 50820U 22001T   24150.53164193  .00000683  00000-0  60975-4 0  9992,2 50820  53.2155 203.3061 0001122  86.9515 273.1605 15.08839818133689,6917.881,95.438,540.522,538.97,0.0
50820.0,STARLINK-3339,PAYLOAD,2024-05-30 11:00:56,15.0884898,0.0001271,53.216,199.1421,80.959,279.1546,0.00028537,4.258e-05,0.0,0 STARLINK-3339,1 50820U 22001T   24151.45899061  .00004258  00000-0  28537-3 0  9992,2 50820  53.2160 199.1421 0001271  80.9590 279.1546 15.08848980133825,6917.853,95.437,540.597,538.839,0.0
50820.0,STARLINK-3339,PAYLOAD,2024-05-31 09:16:20,15.08852779,0.0001505,53.2169,194.9788,71.4597,288.6559,5.4808e-05,5.85e-06,0.0,0 STARLINK-3339,1 50820U 22001T   24152.38635242  .00000585  00000-0  54808-4 0  9994,2 50820  53.2169 194.9788 0001505  71.4597 288.6559 15.08852779133960,6917.841,95.437,540.747,538.665,0.0
50820.0,STARLINK-3339,PAYLOAD,2024-05-31 20:24:02,15.08853034,0.0001471,53.2167,192.8972,82.0171,278.0988,2.9892e-05,1.88e-06,0.0,0 STARLINK-3339,1 50820U 22001T   24152.85002796  .00000188  00000-0  29892-4 0  9992,2 50820  53.2167 192.8972 0001471  82.0171 278.0988 15.08853034132758,6917.841,95.437,540.723,538.688,0.0
50820.0,STARLINK-3339,PAYLOAD,2024-06-01 02:45:35,15.08846032,0.000137,53.2185,191.7073,88.2459,271.869,1.1381e-05,-1.07e-06,0.0,0 STARLINK-3339,1 50820U 22001T   24153.11499054 -.00000107  00000-0  11381-4 0  9995,2 50820  53.2185 191.7073 0001370  88.2459 271.8690 15.08846032134071,6917.862,95.437,540.675,538.779,0.0
50820.0,STARLINK-3339,PAYLOAD,2024-06-01 09:07:07,15.08843296,0.000139,53.2178,190.5181,86.0881,274.027,-4.0839e-05,-9.38e-06,0.0,0 STARLINK-3339,1 50820U 22001T   24153.37995232 -.00000938  00000-0 -40839-4 0  9995,2 50820  53.2178 190.5181 0001390  86.0881 274.0270 15.08843296132837,6917.87,95.437,540.697,538.774,0.0
50820.0,STARLINK-3339,PAYLOAD,2024-06-02 12:08:41,15.0883656,0.0001535,53.2181,185.464,90.0214,270.0954,-2.102e-05,-6.22e-06,0.0,0 STARLINK-3339,1 50820U 22001T   24154.50603432 -.00000622  00000-0 -21020-4 0  9990,2 50820  53.2181 185.4640 0001535  90.0214 270.0954 15.08836560134282,6917.891,95.438,540.818,538.694,0.0
50820.0,STARLINK-3339,PAYLOAD,2024-06-03 08:48:42,15.08835532,0.0001368,53.2169,181.5979,87.3564,272.7584,6.8057e-05,7.95e-06,0.0,0 STARLINK-3339,1 50820U 22001T   24155.36715446  .00000795  00000-0  68057-4 0  9994,2 50820  53.2169 181.5979 0001368  87.3564 272.7584 15.08835532133130,6917.894,95.438,540.705,538.813,0.0
50820.0,STARLINK-3339,PAYLOAD,2024-06-03 18:21:00,15.08839795,0.0001325,53.2166,179.8132,85.365,274.7494,8.2569e-05,1.026e-05,0.0,0 STARLINK-3339,1 50820U 22001T   24155.76459224  .00001026  00000-0  82569-4 0  9999,2 50820  53.2166 179.8132 0001325  85.3650 274.7494 15.08839795134470,6917.881,95.438,540.663,538.829,0.0
50820.0,STARLINK-3339,PAYLOAD,2024-06-04 11:50:15,15.08841803,0.0001304,53.2166,176.5424,85.948,274.1661,0.00011038,1.469e-05,0.0,0 STARLINK-3339,1 50820U 22001T   24156.49323116  .00001469  00000-0  11038-3 0  9993,2 50820  53.2166 176.5424 0001304  85.9480 274.1661 15.08841803133306,6917.875,95.437,540.642,538.838,0.0
50820.0,STARLINK-3339,PAYLOAD,2024-06-04 18:11:47,15.08846413,0.0001355,53.2171,175.3534,86.6266,273.4881,0.00013932,1.93e-05,0.0,0 STARLINK-3339,1 50820U 22001T   24156.75818713  .00001930  00000-0  13932-3 0  9992,2 50820  53.2171 175.3534 0001355  86.6266 273.4881 15.08846413133349,6917.861,95.437,540.663,538.788,0.0
50820.0,STARLINK-3339,PAYLOAD,2024-06-05 05:19:30,15.08837748,0.0001574,53.2181,173.2735,89.8383,270.279,5.9645e-05,6.61e-06,0.0,0 STARLINK-3339,1 50820U 22001T   24157.22187510  .00000661  00000-0  59645-4 0  9991,2 50820  53.2181 173.2735 0001574  89.8383 270.2790 15.08837748134692,6917.887,95.438,540.841,538.663,0.0
50820.0,STARLINK-3339,PAYLOAD,2024-06-05 11:41:02,15.08838127,0.000152,53.2185,172.0839,87.1971,272.9195,5.5104e-05,5.89e-06,0.0,0 STARLINK-3339,1 50820U 22001T   24157.48683517  .00000589  00000-0  55104-4 0  9992,2 50820  53.2185 172.0839 0001520  87.1971 272.9195 15.08838127133456,6917.886,95.438,540.803,538.7,0.0
50820.0,STARLINK-3339,PAYLOAD,2024-06-05 18:02:35,15.08837853,0.0001531,53.2183,170.8942,86.5674,273.5493,4.7459e-05,4.67e-06,0.0,0 STARLINK-3339,1 50820U 22001T   24157.75179556  .00000467  00000-0  47459-4 0  9994,2 50820  53.2183 170.8942 0001531  86.5674 273.5493 15.08837853133497,6917.887,95.438,540.811,538.693,0.0
50820.0,STARLINK-3339,PAYLOAD,2024-06-06 06:45:40,15.08836593,0.0001481,53.2177,168.515,87.1206,272.9956,-2.8168e-05,-7.36e-06,0.0,0 STARLINK-3339,1 50820U 22001T   24158.28171880 -.00000736  00000-0 -28168-4 0  9992,2 50820  53.2177 168.5150 0001481  87.1206 272.9956 15.08836593134855,6917.891,95.438,540.78,538.731,0.0
50820.0,STARLINK-3339,PAYLOAD,2024-06-07 00:14:54,15.08849785,0.0001568,53.2186,165.2429,79.8028,280.3141,-9.4895e-05,-1.798e-05,0.0,0 STARLINK-3339,1 50820U 22001T   24159.01035201 -.00001798  00000-0 -94895-4 0  9999,2 50820  53.2186 165.2429 0001568  79.8028 280.3141 15.08849785134962,6917.85,95.437,540.8,538.631,0.0
50820.0,STARLINK-3339,PAYLOAD,2024-06-07 17:44:08,15.08845147,0.0001332,53.2167,161.972,86.473,273.6415,9.0604e-05,1.155e-05,0.0,0 STARLINK-3339,1 50820U 22001T   24159.73898908  .00001155  00000-0  90604-4 0  9998,2 50820  53.2167 161.9720 0001332  86.4730 273.6415 15.08845147133798,6917.865,95.437,540.651,538.808,0.0
50820.0,STARLINK-3339,PAYLOAD,2024-06-08 04:51:50,15.08838835,0.0001384,53.2169,159.8902,88.9401,271.1749,9.6658e-05,1.251e-05,0.0,0 STARLINK-3339,1 50820U 22001T   24160.20267321  .00001251  00000-0  96658-4 0  9993,2 50820  53.2169 159.8902 0001384  88.9401 271.1749 15.08838835135147,6917.884,95.438,540.706,538.792,0.0
50820.0,STARLINK-3339,PAYLOAD,2024-06-08 06:27:13,15.08840595,0.0001374,53.2166,159.5924,91.2757,268.8393,0.00011107,1.48e-05,0.0,0 STARLINK-3339,1 50820U 22001T   24160.26891164  .00001480  00000-0  11107-3 0  9996,2 50820  53.2166 159.5924 0001374  91.2757 268.8393 15.08840595133877,6917.879,95.438,540.694,538.793,0.0
50820.0,STARLINK-3339,PAYLOAD,2024-06-08 17:34:55,15.0884315,0.000137,53.2167,157.5108,91.5026,268.6123,9.4158e-05,1.211e-05,0.0,0 STARLINK-3339,1 50820U 22001T   24160.73258990  .00001211  00000-0  94158-4 0  9992,2 50820  53.2167 157.5108 0001370  91.5026 268.6123 15.08843150133945,6917.871,95.437,540.684,538.788,0.0
50820.0,STARLINK-3339,PAYLOAD,2024-06-09 04:42:39,15.08804564,0.0001397,53.2178,155.4294,102.1958,257.9191,0.00034542,5.208e-05,0.0,0 STARLINK-3339,1 50820U 22001T   24161.19629049  .00005208  00000-0  34542-3 0  9990,2 50820  53.2178 155.4294 0001397 102.1958 257.9191 15.08804564135294,6917.989,95.44,540.82,538.887,0.0
50820.0,STARLINK-3339,PAYLOAD,2024-06-09 06:18:01,15.08830111,0.0001509,53.2178,155.1319,95.7271,264.3893,-8.6966e-06,-4.26e-06,0.0,0 STARLINK-3339,1 50820U 22001T   24161.26252247 -.00000426  00000-0 -86966-5 0  9998,2 50820  53.2178 155.1319 0001509  95.7271 264.3893 15.08830111135309,6917.911,95.438,540.82,538.732,0.0
50820.0,STARLINK-3339,PAYLOAD,2024-06-10 06:08:48,15.0884327,0.0001473,53.2178,150.6723,96.9542,263.1617,3.7461e-05,3.08e-06,0.0,0 STARLINK-3339,1 50820U 22001T   24162.25611312  .00000308  00000-0  37461-4 0  9992,2 50820  53.2178 150.6723 0001473  96.9542 263.1617 15.08843270135459,6917.87,95.437,540.754,538.716,0.0
50820.0,STARLINK-3339,PAYLOAD,2024-06-10 09:19:34,15.08842261,0.0001526,53.2181,150.0783,98.0755,262.0411,5.979e-05,6.64e-06,0.0,0 STARLINK-3339,1 50820U 22001T   24162.38859317  .00000664  00000-0  59790-4 0  9999,2 50820  53.2181 150.0783 0001526  98.0755 262.0411 15.08842261134190,6917.873,95.437,540.794,538.683,0.0
50820.0,STARLINK-3339,PAYLOAD,2024-06-10 15:41:06,15.0884416,0.0001513,53.2182,148.8889,97.8793,262.2371,5.1309e-05,5.29e-06,0.0,0 STARLINK-3339,1 50820U 22001T   24162.65355176  .00000529  00000-0  51309-4 0  9991,2 50820  53.2182 148.8889 0001513  97.8793 262.2371 15.08844160134230,6917.868,95.437,540.779,538.686,0.0
50820.0,STARLINK-3339,PAYLOAD,2024-06-11 05:59:35,15.08830569,0.0001441,53.2175,146.2138,99.6528,260.4627,5.2718e-05,5.51e-06,0.0,0 STARLINK-3339,1 50820U 22001T   24163.24972163  .00000551  00000-0  52718-4 0  9998,2 50820  53.2175 146.2138 0001441  99.6528 260.4627 15.08830569135601,6917.909,95.438,540.771,538.777,0.0
50820.0,STARLINK-3339,PAYLOAD,2024-06-12 05:50:23,15.08832929,0.0001497,53.2174,141.7534,101.5322,258.5838,-2.8121e-05,-7.35e-06,0.0,0 STARLINK-3339,1 50820U 22001T   24164.24332658 -.00000735  00000-0 -28121-4 0  9995,2 50820  53.2174 141.7534 0001497 101.5322 258.5838 15.08832929134474,6917.902,95.438,540.803,538.731,0.0
50820.0,STARLINK-3339,PAYLOAD,2024-06-12 09:01:09,15.08835383,0.0001298,53.2163,141.1564,91.7108,268.4033,-1.5224e-05,-5.3e-06,0.0,0 STARLINK-3339,1 50820U 22001T   24164.37580497 -.00000530  00000-0 -15224-4 0  9998,2 50820  53.2163 141.1564 0001298  91.7108 268.4033 15.08835383135778,6917.895,95.438,540.657,538.862,0.0
50820.0,STARLINK-3339,PAYLOAD,2024-06-12 15:22:41,15.08839294,0.0001317,53.2168,139.9672,90.1641,269.9502,2.2509e-06,-2.52e-06,0.0,0 STARLINK-3339,1 50820U 22001T   24164.64076225 -.00000252  00000-0  22509-5 0  9992,2 50820  53.2168 139.9672 0001317  90.1641 269.9502 15.08839294134530,6917.883,95.438,540.659,538.836,0.0
50820.0,STARLINK-3339,PAYLOAD,2024-06-13 07:16:33,15.08838505,0.0001341,53.2168,136.9935,86.3242,273.7904,6.7415e-05,7.85e-06,0.0,0 STARLINK-3339,1 50820U 22001T   24165.30316240  .00000785  00000-0  67415-4 0  9994,2 50820  53.2168 136.9935 0001341  86.3242 273.7904 15.08838505134634,6917.885,95.438,540.678,538.822,0.0
